STARLINK-5888           
1 56348U 23058AH  25316.26545804  .00000321  00000+0  29497-4 0  9995
2 56348  97.6008 315.2635 0003718  50.9915 309.1640 15.01261692140518
STARLINK-5887           
1 56349U 23058AJ  25316.25224892  .00000332  00000+0  30377-4 0  9997
2 56349  97.6012 315.2746 0001678  89.1216 271.0200 15.01259945140515
STARLINK-5886           
1 56350U 23058AK  25315.95510648  .00000422  00000+0  33437-4 0  9992
2 56350  97.6022 315.2115 0001747  88.0424 272.1003 15.05646179140486
STARLINK-5891           
1 56351U 23058AL  25315.98002450 -.00000459  00000+0 -27574-4 0  9990
2 56351  97.6029 315.1795 0001901  88.5286 271.6158 15.05645931140480
STARLINK-5885           
1 56352U 23058AM  25316.25595057 -.00000414  00000+0 -27677-4 0  9997
2 56352  97.6004 315.2703 0001938  90.6372 269.5075 15.01267238140518
STARLINK-5874           
1 56353U 23058AN  25315.97082494 -.00000276  00000+0 -16948-4 0  9997
2 56353  97.6018 315.0306 0002142 148.0944 212.0411 15.01258458140478
STARLINK-5877           
1 56354U 23058AP  25315.99940160 -.00000678  00000+0 -42764-4 0  9994
2 56354  97.6024 315.1538 0001630  94.9338 265.2075 15.05636966140486
STARLINK-5533           
1 56355U 23058AQ  25316.24483595  .00001508  00000+0  12197-3 0  9995
2 56355  97.6015 315.2826 0000727 193.3678 166.7527 15.01252899140511
STARLINK-5535           
1 56356U 23058AR  25315.97725348 -.00004013  00000+0 -27408-3 0  9997
2 56356  97.6030 315.1816 0001641  88.9413 271.2001 15.05648986140484
STARLINK-5538           
1 56357U 23058AS  25316.01049089  .00000151  00000+0  14710-4 0  9995
2 56357  97.6028 315.2919 0001508  92.4622 267.6778 15.05645333140495
STARLINK-5482           
1 56358U 23058AT  25316.24853659  .00000202  00000+0  20242-4 0  9991
2 56358  97.6015 315.2783 0000722 102.9413 257.1892 15.01270735140513
STARLINK-5551           
1 56359U 23058AU  25315.97661570 -.00002711  00000+0 -20667-3 0  9999
2 56359  97.6011 315.0241 0000829 156.5000 203.6263 15.01254759140473
STARLINK-5549           
1 56360U 23058AV  25315.96618118 -.00000325  00000+0 -18311-4 0  9993
2 56360  97.6031 315.1944 0001690  80.2544 279.8874 15.05647897140488
STARLINK-5550           
1 56361U 23058AW  25315.97452766 -.00000864  00000+0 -62725-4 0  9996
2 56361  97.6019 315.0265 0002338 161.9132 198.2176 15.01258551140479
STARLINK-5972           
1 56362U 23058AX  25315.97172046  .00000022  00000+0  57155-5 0  9993
2 56362  97.6029 315.1870 0001685  86.9918 273.1501 15.05645495140483
STARLINK-6156           
1 56374U 23061A   25315.83408142 -.00001478  00000+0 -94389-4 0  9991
2 56374  43.0026 118.0731 0001644 260.7261  99.3395 15.02523210140129
