[{"OBJECT_NAME":"STARLINK-5888","OBJECT_ID":"2023-058AH","EPOCH":"2025-11-12T06:22:15.574656","MEAN_MOTION":15.01261692,"ECCENTRICITY":0.00037188,"INCLINATION":97.6008,"RA_OF_ASC_NODE":315.2635,"ARG_OF_PERICENTER":50.9915,"MEAN_ANOMALY":309.164,"EPHEMERIS_TYPE":0,"CLASSIFICATION_TYPE":"U","NORAD_CAT_ID":56348,"ELEMENT_SET_NO":999,"REV_AT_EPOCH":14051,"BSTAR":2.9496656e-5,"MEAN_MOTION_DOT":3.21e-6,"MEAN_MOTION_DDOT":0},{"OBJECT_NAME":"STARLINK-5887","OBJECT_ID":"2023-058AJ","EPOCH":"2025-11-12T06:03:14.306688","MEAN_MOTION":15.01259945,"ECCENTRICITY":0.00016781,"INCLINATION":97.6012,"RA_OF_ASC_NODE":315.2746,"ARG_OF_PERICENTER":89.1216,"MEAN_ANOMALY":271.02,"EPHEMERIS_TYPE":0,"CLASSIFICATION_TYPE":"U","NORAD_CAT_ID":56349,"ELEMENT_SET_NO":999,"REV_AT_EPOCH":14051,"BSTAR":3.0376767e-5,"MEAN_MOTION_DOT":3.32e-6,"MEAN_MOTION_DDOT":0},{"OBJECT_NAME":"STARLINK-5886","OBJECT_ID":"2023-058AK","EPOCH":"2025-11-11T22:55:21.199872","MEAN_MOTION":15.05646179,"ECCENTRICITY":0.00017474,"INCLINATION":97.6022,"RA_OF_ASC_NODE":315.2115,"ARG_OF_PERICENTER":88.0424,"MEAN_ANOMALY":272.1003,"EPHEMERIS_TYPE":0,"CLASSIFICATION_TYPE":"U","NORAD_CAT_ID":56350,"ELEMENT_SET_NO":999,"REV_AT_EPOCH":14048,"BSTAR":3.3437449e-5,"MEAN_MOTION_DOT":4.22e-6,"MEAN_MOTION_DDOT":0},{"OBJECT_NAME":"STARLINK-5891","OBJECT_ID":"2023-058AL","EPOCH":"2025-11-11T23:31:14.116800","MEAN_MOTION":15.05645931,"ECCENTRICITY":0.00019011,"INCLINATION":97.6029,"RA_OF_ASC_NODE":315.1795,"ARG_OF_PERICENTER":88.5286,"MEAN_ANOMALY":271.6158,"EPHEMERIS_TYPE":0,"CLASSIFICATION_TYPE":"U","NORAD_CAT_ID":56351,"ELEMENT_SET_NO":999,"REV_AT_EPOCH":14048,"BSTAR":-2.7574368e-5,"MEAN_MOTION_DOT":-4.59e-6,"MEAN_MOTION_DDOT":0},{"OBJECT_NAME":"STARLINK-5885","OBJECT_ID":"2023-058AM","EPOCH":"2025-11-12T06:08:34.129248","MEAN_MOTION":15.01267238,"ECCENTRICITY":0.00019383,"INCLINATION":97.6004,"RA_OF_ASC_NODE":315.2703,"ARG_OF_PERICENTER":90.6372,"MEAN_ANOMALY":269.5075,"EPHEMERIS_TYPE":0,"CLASSIFICATION_TYPE":"U","NORAD_CAT_ID":56352,"ELEMENT_SET_NO":999,"REV_AT_EPOCH":14051,"BSTAR":-2.7676954e-5,"MEAN_MOTION_DOT":-4.14e-6,"MEAN_MOTION_DDOT":0},{"OBJECT_NAME":"STARLINK-5874","OBJECT_ID":"2023-058AN","EPOCH":"2025-11-11T23:17:59.274816","MEAN_MOTION":15.01258458,"ECCENTRICITY":0.00021428,"INCLINATION":97.6018,"RA_OF_ASC_NODE":315.0306,"ARG_OF_PERICENTER":148.0944,"MEAN_ANOMALY":212.0411,"EPHEMERIS_TYPE":0,"CLASSIFICATION_TYPE":"U","NORAD_CAT_ID":56353,"ELEMENT_SET_NO":999,"REV_AT_EPOCH":14047,"BSTAR":-1.6947839e-5,"MEAN_MOTION_DOT":-2.76e-6,"MEAN_MOTION_DDOT":0},{"OBJECT_NAME":"STARLINK-5877","OBJECT_ID":"2023-058AP","EPOCH":"2025-11-11T23:59:08.298240","MEAN_MOTION":15.05636966,"ECCENTRICITY":0.00016303,"INCLINATION":97.6024,"RA_OF_ASC_NODE":315.1538,"ARG_OF_PERICENTER":94.9338,"MEAN_ANOMALY":265.2075,"EPHEMERIS_TYPE":0,"CLASSIFICATION_TYPE":"U","NORAD_CAT_ID":56354,"ELEMENT_SET_NO":999,"REV_AT_EPOCH":14048,"BSTAR":-4.2763955e-5,"MEAN_MOTION_DOT":-6.78e-6,"MEAN_MOTION_DDOT":0},{"OBJECT_NAME":"STARLINK-5533","OBJECT_ID":"2023-058AQ","EPOCH":"2025-11-12T05:52:33.826080","MEAN_MOTION":15.01252899,"ECCENTRICITY":7.276e-5,"INCLINATION":97.6015,"RA_OF_ASC_NODE":315.2826,"ARG_OF_PERICENTER":193.3678,"MEAN_ANOMALY":166.7527,"EPHEMERIS_TYPE":0,"CLASSIFICATION_TYPE":"U","NORAD_CAT_ID":56355,"ELEMENT_SET_NO":999,"REV_AT_EPOCH":14051,"BSTAR":0.00012197017,"MEAN_MOTION_DOT":1.508e-5,"MEAN_MOTION_DDOT":0},{"OBJECT_NAME":"STARLINK-5535","OBJECT_ID":"2023-058AR","EPOCH":"2025-11-11T23:27:14.700672","MEAN_MOTION":15.05648986,"ECCENTRICITY":0.00016415,"INCLINATION":97.603,"RA_OF_ASC_NODE":315.1816,"ARG_OF_PERICENTER":88.9413,"MEAN_ANOMALY":271.2001,"EPHEMERIS_TYPE":0,"CLASSIFICATION_TYPE":"U","NORAD_CAT_ID":56356,"ELEMENT_SET_NO":999,"REV_AT_EPOCH":14048,"BSTAR":-0.00027407574,"MEAN_MOTION_DOT":-4.013e-5,"MEAN_MOTION_DDOT":0},{"OBJECT_NAME":"STARLINK-5538","OBJECT_ID":"2023-058AS","EPOCH":"2025-11-12T00:15:06.412896","MEAN_MOTION":15.05645333,"ECCENTRICITY":0.00015088,"INCLINATION":97.6028,"RA_OF_ASC_NODE":315.2919,"ARG_OF_PERICENTER":92.4622,"MEAN_ANOMALY":267.6778,"EPHEMERIS_TYPE":0,"CLASSIFICATION_TYPE":"U","NORAD_CAT_ID":56357,"ELEMENT_SET_NO":999,"REV_AT_EPOCH":14049,"BSTAR":1.4710294e-5,"MEAN_MOTION_DOT":1.51e-6,"MEAN_MOTION_DDOT":0},{"OBJECT_NAME":"STARLINK-5482","OBJECT_ID":"2023-058AT","EPOCH":"2025-11-12T05:57:53.561376","MEAN_MOTION":15.01270735,"ECCENTRICITY":7.223e-5,"INCLINATION":97.6015,"RA_OF_ASC_NODE":315.2783,"ARG_OF_PERICENTER":102.9413,"MEAN_ANOMALY":257.1892,"EPHEMERIS_TYPE":0,"CLASSIFICATION_TYPE":"U","NORAD_CAT_ID":56358,"ELEMENT_SET_NO":999,"REV_AT_EPOCH":14051,"BSTAR":2.0241918e-5,"MEAN_MOTION_DOT":2.02e-6,"MEAN_MOTION_DDOT":0},{"OBJECT_NAME":"STARLINK-5551","OBJECT_ID":"2023-058AU","EPOCH":"2025-11-11T23:26:19.596480","MEAN_MOTION":15.01254759,"ECCENTRICITY":8.29e-5,"INCLINATION":97.6011,"RA_OF_ASC_NODE":315.0241,"ARG_OF_PERICENTER":156.5,"MEAN_ANOMALY":203.6263,"EPHEMERIS_TYPE":0,"CLASSIFICATION_TYPE":"U","NORAD_CAT_ID":56359,"ELEMENT_SET_NO":999,"REV_AT_EPOCH":14047,"BSTAR":-0.00020667313,"MEAN_MOTION_DOT":-2.711e-5,"MEAN_MOTION_DDOT":0},{"OBJECT_NAME":"STARLINK-5549","OBJECT_ID":"2023-058AV","EPOCH":"2025-11-11T23:11:18.053952","MEAN_MOTION":15.05647897,"ECCENTRICITY":0.00016907,"INCLINATION":97.6031,"RA_OF_ASC_NODE":315.1944,"ARG_OF_PERICENTER":80.2544,"MEAN_ANOMALY":279.8874,"EPHEMERIS_TYPE":0,"CLASSIFICATION_TYPE":"U","NORAD_CAT_ID":56360,"ELEMENT_SET_NO":999,"REV_AT_EPOCH":14048,"BSTAR":-1.8311215e-5,"MEAN_MOTION_DOT":-3.25e-6,"MEAN_MOTION_DDOT":0},{"OBJECT_NAME":"STARLINK-5550","OBJECT_ID":"2023-058AW","EPOCH":"2025-11-11T23:23:19.189824","MEAN_MOTION":15.01258551,"ECCENTRICITY":0.0002338,"INCLINATION":97.6019,"RA_OF_ASC_NODE":315.0265,"ARG_OF_PERICENTER":161.9132,"MEAN_ANOMALY":198.2176,"EPHEMERIS_TYPE":0,"CLASSIFICATION_TYPE":"U","NORAD_CAT_ID":56361,"ELEMENT_SET_NO":999,"REV_AT_EPOCH":14047,"BSTAR":-6.2725434e-5,"MEAN_MOTION_DOT":-8.64e-6,"MEAN_MOTION_DDOT":0},{"OBJECT_NAME":"STARLINK-5972","OBJECT_ID":"2023-058AX","EPOCH":"2025-11-11T23:19:16.647744","MEAN_MOTION":15.05645495,"ECCENTRICITY":0.00016859,"INCLINATION":97.6029,"RA_OF_ASC_NODE":315.187,"ARG_OF_PERICENTER":86.9918,"MEAN_ANOMALY":273.1501,"EPHEMERIS_TYPE":0,"CLASSIFICATION_TYPE":"U","NORAD_CAT_ID":56362,"ELEMENT_SET_NO":999,"REV_AT_EPOCH":14048,"BSTAR":5.715461e-6,"MEAN_MOTION_DOT":2.2e-7,"MEAN_MOTION_DDOT":0},{"OBJECT_NAME":"STARLINK-6156","OBJECT_ID":"2023-061A","EPOCH":"2025-11-11T20:01:04.634688","MEAN_MOTION":15.0252321,"ECCENTRICITY":0.00016445,"INCLINATION":43.0026,"RA_OF_ASC_NODE":118.0731,"ARG_OF_PERICENTER":260.7261,"MEAN_ANOMALY":99.3395,"EPHEMERIS_TYPE":0,"CLASSIFICATION_TYPE":"U","NORAD_CAT_ID":56374,"ELEMENT_SET_NO":999,"REV_AT_EPOCH":14012,"BSTAR":-9.4389192e-5,"MEAN_MOTION_DOT":-1.478e-5,"MEAN_MOTION_DDOT":0}]
